[{"OBJECT_NAME":"STARLINK-4305","OBJECT_ID":"2022-077T","EPOCH":"2026-03-09T22:53:33.429696","MEAN_MOTION":15.01260004,"ECCENTRICITY":0.00013146,"INCLINATION":97.602,"RA_OF_ASC_NODE":250.4799,"ARG_OF_PERICENTER":98.9331,"MEAN_ANOMALY":261.2042,"EPHEMERIS_TYPE":0,"CLASSIFICATION_TYPE":"U","NORAD_CAT_ID":53060,"ELEMENT_SET_NO":999,"REV_AT_EPOCH":20095,"BSTAR":1.8648859e-5,"MEAN_MOTION_DOT":1.81e-6,"MEAN_MOTION_DDOT":0},{"OBJECT_NAME":"DELTA 2 R\/B(1)","OBJECT_ID":"1992-009B","EPOCH":"2026-03-09T12:17:31.364448","MEAN_MOTION":14.93413608,"ECCENTRICITY":0.00380129,"INCLINATION":19.9949,"RA_OF_ASC_NODE":116.2431,"ARG_OF_PERICENTER":331.0025,"MEAN_ANOMALY":28.8287,"EPHEMERIS_TYPE":0,"CLASSIFICATION_TYPE":"U","NORAD_CAT_ID":21891,"ELEMENT_SET_NO":999,"REV_AT_EPOCH":81986,"BSTAR":0.00029183889,"MEAN_MOTION_DOT":3.628e-5,"MEAN_MOTION_DDOT":0}]
